{
  "norad_id": 46320,
  "name": "NAPA-1",
  "history": [
    {
      "epoch": "2026-04-30T14:10:25.707648Z",
      "apogee_km": 382.0507588982455,
      "perigee_km": 379.60414894521455,
      "latitude_deg": 4.5919746093110936e-05,
      "longitude_deg": 122.27264547010911,
      "height_km": 384.9634132168486,
      "semi_major_axis_km": 6758.96445392173,
      "eccentricity": 0.00018099,
      "inclination_deg": 97.2502,
      "raan_deg": 193.4149,
      "arg_perigee_deg": 143.6581,
      "mean_anomaly_deg": 216.4801,
      "mean_motion_rev_day": 15.62365061
    },
    {
      "epoch": "2026-05-02T12:17:04.512192Z",
      "apogee_km": 381.2898907447434,
      "perigee_km": 378.88936864587595,
      "latitude_deg": -7.022827781238514e-05,
      "longitude_deg": 150.68616948040435,
      "height_km": 384.2271760032124,
      "semi_major_axis_km": 6758.226629695309,
      "eccentricity": 0.0001776,
      "inclination_deg": 97.2499,
      "raan_deg": 195.3838,
      "arg_perigee_deg": 145.2746,
      "mean_anomaly_deg": 214.8628,
      "mean_motion_rev_day": 15.62620923
    },
    {
      "epoch": "2026-05-03T20:33:28.425600Z",
      "apogee_km": 380.78045172567545,
      "perigee_km": 378.466594522557,
      "latitude_deg": 1.8214528356283867e-05,
      "longitude_deg": 26.639397713291427,
      "height_km": 383.7122469554984,
      "semi_major_axis_km": 6757.760523124116,
      "eccentricity": 0.0001712,
      "inclination_deg": 97.2493,
      "raan_deg": 196.7621,
      "arg_perigee_deg": 144.1234,
      "mean_anomaly_deg": 216.014,
      "mean_motion_rev_day": 15.62782595
    },
    {
      "epoch": "2026-05-04T21:08:41.538048Z",
      "apogee_km": 380.42525395574467,
      "perigee_km": 378.10881585257994,
      "latitude_deg": -8.840027386238498e-05,
      "longitude_deg": 17.875621207298497,
      "height_km": 383.370142721103,
      "semi_major_axis_km": 6757.4040349041625,
      "eccentricity": 0.0001714,
      "inclination_deg": 97.2491,
      "raan_deg": 197.8127,
      "arg_perigee_deg": 145.2449,
      "mean_anomaly_deg": 214.8921,
      "mean_motion_rev_day": 15.62906264
    },
    {
      "epoch": "2026-05-05T20:11:35.453184Z",
      "apogee_km": 380.0508819257575,
      "perigee_km": 377.712953380249,
      "latitude_deg": 1.4165014017153162e-05,
      "longitude_deg": 32.18949771765342,
      "height_km": 382.9820813081826,
      "semi_major_axis_km": 6757.018917653003,
      "eccentricity": 0.000173,
      "inclination_deg": 97.2485,
      "raan_deg": 198.7978,
      "arg_perigee_deg": 144.2346,
      "mean_anomaly_deg": 215.9029,
      "mean_motion_rev_day": 15.63039883
    },
    {
      "epoch": "2026-05-06T20:46:34.635360Z",
      "apogee_km": 379.7774484843512,
      "perigee_km": 377.4261033903258,
      "latitude_deg": 1.3514187136813422e-05,
      "longitude_deg": 23.48380919054185,
      "height_km": 382.6887058599425,
      "semi_major_axis_km": 6756.738775937339,
      "eccentricity": 0.000174,
      "inclination_deg": 97.2486,
      "raan_deg": 199.8483,
      "arg_perigee_deg": 142.701,
      "mean_anomaly_deg": 217.437,
      "mean_motion_rev_day": 15.63137092
    },
    {
      "epoch": "2026-05-07T21:21:28.605888Z",
      "apogee_km": 379.5282494165258,
      "perigee_km": 377.16888465651573,
      "latitude_deg": 3.556405900356572e-05,
      "longitude_deg": 14.800292771373137,
      "height_km": 382.45070602896527,
      "semi_major_axis_km": 6756.4855670365205,
      "eccentricity": 0.0001746,
      "inclination_deg": 97.2486,
      "raan_deg": 200.8992,
      "arg_perigee_deg": 143.6629,
      "mean_anomaly_deg": 216.4749,
      "mean_motion_rev_day": 15.63224964
    },
    {
      "epoch": "2026-05-08T20:24:06.912000Z",
      "apogee_km": 379.26012301286937,
      "perigee_km": 376.88193778616915,
      "latitude_deg": -1.0126164895406976e-05,
      "longitude_deg": 29.179504593049575,
      "height_km": 382.1654986999604,
      "semi_major_axis_km": 6756.208030399519,
      "eccentricity": 0.000176,
      "inclination_deg": 97.2484,
      "raan_deg": 201.8844,
      "arg_perigee_deg": 142.4342,
      "mean_anomaly_deg": 217.704,
      "mean_motion_rev_day": 15.63321288
    },
    {
      "epoch": "2026-05-09T20:58:50.249280Z",
      "apogee_km": 378.9937134782822,
      "perigee_km": 376.6075163127007,
      "latitude_deg": 3.2002049607744056e-05,
      "longitude_deg": 20.54031358329875,
      "height_km": 381.89787480882757,
      "semi_major_axis_km": 6755.937614895491,
      "eccentricity": 0.0001766,
      "inclination_deg": 97.2486,
      "raan_deg": 202.9352,
      "arg_perigee_deg": 142.3955,
      "mean_anomaly_deg": 217.7428,
      "mean_motion_rev_day": 15.6341515
    }
  ]
}